[{"OBJECT_NAME":"STARLINK-6251","OBJECT_ID":"2023-088AR","EPOCH":"2026-03-09T22:00:01.999584","MEAN_MOTION":15.09464879,"ECCENTRICITY":0.00017173,"INCLINATION":42.9997,"RA_OF_ASC_NODE":93.0088,"ARG_OF_PERICENTER":295.5907,"MEAN_ANOMALY":164.0192,"EPHEMERIS_TYPE":0,"CLASSIFICATION_TYPE":"U","NORAD_CAT_ID":57087,"ELEMENT_SET_NO":999,"REV_AT_EPOCH":578,"BSTAR":0.0033899147,"MEAN_MOTION_DOT":0.00055431,"MEAN_MOTION_DDOT":0},{"OBJECT_NAME":"RAISE-4","OBJECT_ID":"2025-297B","EPOCH":"2026-03-09T23:25:57.718272","MEAN_MOTION":15.08174958,"ECCENTRICITY":0.00127133,"INCLINATION":97.4953,"RA_OF_ASC_NODE":219.2703,"ARG_OF_PERICENTER":22.7159,"MEAN_ANOMALY":337.4629,"EPHEMERIS_TYPE":0,"CLASSIFICATION_TYPE":"U","NORAD_CAT_ID":67073,"ELEMENT_SET_NO":999,"REV_AT_EPOCH":1293,"BSTAR":0.00037087145,"MEAN_MOTION_DOT":5.682e-5,"MEAN_MOTION_DDOT":0}]
